{
  "type": "FeatureCollection",
  "features": [
    {
      "type": "Feature",
      "properties": {
        "norad_id": 41877,
        "name": "RESOURCESAT-2A",
        "group": "resource",
        "lat": 64.12573320125726,
        "lon": 39.884948893495455,
        "alt_km": 814.4979234096663,
        "timestamp": "2025-12-14T14:39:29.033877+00:00",
        "meta_object_name": "RESOURCESAT-2A",
        "meta_object_id": "2016-074A",
        "meta_epoch": "2025-12-14T00:50:13.939584",
        "meta_mean_motion": 14.21600979,
        "meta_eccentricity": 0.00011756,
        "meta_inclination": 98.7752,
        "meta_ra_of_asc_node": 57.8829,
        "meta_arg_of_pericenter": 248.6571,
        "meta_mean_anomaly": 111.448,
        "meta_ephemeris_type": 0,
        "meta_classification_type": "U",
        "meta_norad_cat_id": 41877,
        "meta_element_set_no": 999,
        "meta_rev_at_epoch": 46799,
        "meta_bstar": 0.00022465258,
        "meta_mean_motion_dot": 4.48e-06,
        "meta_mean_motion_ddot": 0,
        "tle_line1": "1 41877U 16074A   25348.03488356  .00000448  00000+0  22465-3 0  9991",
        "tle_line2": "2 41877  98.7752  57.8829 0001175 248.6571 111.4480 14.21600979467996"
      },
      "geometry": {
        "type": "Point",
        "coordinates": [
          39.884948893495455,
          64.12573320125726
        ]
      }
    },
    {
      "type": "Feature",
      "properties": {
        "norad_id": 41948,
        "name": "CARTOSAT-2D",
        "group": "resource",
        "lat": 8.47400155132905,
        "lon": 44.96366955641637,
        "alt_km": 512.6702517431095,
        "timestamp": "2025-12-14T14:39:29.033887+00:00",
        "meta_object_name": "CARTOSAT-2D",
        "meta_object_id": "2017-008A",
        "meta_epoch": "2025-12-14T00:23:39.086304",
        "meta_mean_motion": 15.19277954,
        "meta_eccentricity": 0.00047903,
        "meta_inclination": 97.4395,
        "meta_ra_of_asc_node": 45.4938,
        "meta_arg_of_pericenter": 157.3013,
        "meta_mean_anomaly": 202.8434,
        "meta_ephemeris_type": 0,
        "meta_classification_type": "U",
        "meta_norad_cat_id": 41948,
        "meta_element_set_no": 999,
        "meta_rev_at_epoch": 48946,
        "meta_bstar": 0.00028402035,
        "meta_mean_motion_dot": 5.925e-05,
        "meta_mean_motion_ddot": 0,
        "tle_line1": "1 41948U 17008A   25348.01642461  .00005925  00000+0  28402-3 0  9997",
        "tle_line2": "2 41948  97.4395  45.4938 0004790 157.3013 202.8434 15.19277954489462"
      },
      "geometry": {
        "type": "Point",
        "coordinates": [
          44.96366955641637,
          8.47400155132905
        ]
      }
    },
    {
      "type": "Feature",
      "properties": {
        "norad_id": 42063,
        "name": "SENTINEL-2B",
        "group": "resource",
        "lat": 79.45447623845594,
        "lon": -64.86026973392924,
        "alt_km": 780.7758724314554,
        "timestamp": "2025-12-14T14:39:29.033897+00:00",
        "meta_object_name": "SENTINEL-2B",
        "meta_object_id": "2017-013A",
        "meta_epoch": "2025-12-13T23:06:19.960992",
        "meta_mean_motion": 14.30817173,
        "meta_eccentricity": 0.00011717,
        "meta_inclination": 98.5711,
        "meta_ra_of_asc_node": 60.3911,
        "meta_arg_of_pericenter": 93.3771,
        "meta_mean_anomaly": 266.7546,
        "meta_ephemeris_type": 0,
        "meta_classification_type": "U",
        "meta_norad_cat_id": 42063,
        "meta_element_set_no": 999,
        "meta_rev_at_epoch": 45815,
        "meta_bstar": 0.00015504776,
        "meta_mean_motion_dot": 3.63e-06,
        "meta_mean_motion_ddot": 0,
        "tle_line1": "1 42063U 17013A   25347.96273103  .00000363  00000+0  15505-3 0  9999",
        "tle_line2": "2 42063  98.5711  60.3911 0001171  93.3771 266.7546 14.30817173458152"
      },
      "geometry": {
        "type": "Point",
        "coordinates": [
          -64.86026973392924,
          79.45447623845594
        ]
      }
    },
    {
      "type": "Feature",
      "properties": {
        "norad_id": 42767,
        "name": "CARTOSAT-2E",
        "group": "resource",
        "lat": -78.24378157537451,
        "lon": 85.17074927479524,
        "alt_km": 514.5904840919866,
        "timestamp": "2025-12-14T14:39:29.033908+00:00",
        "meta_object_name": "CARTOSAT-2E",
        "meta_object_id": "2017-036C",
        "meta_epoch": "2025-12-13T23:12:21.754944",
        "meta_mean_motion": 15.19216829,
        "meta_eccentricity": 0.00020323,
        "meta_inclination": 97.4561,
        "meta_ra_of_asc_node": 45.5373,
        "meta_arg_of_pericenter": 233.7363,
        "meta_mean_anomaly": 126.3684,
        "meta_ephemeris_type": 0,
        "meta_classification_type": "U",
        "meta_norad_cat_id": 42767,
        "meta_element_set_no": 999,
        "meta_rev_at_epoch": 47002,
        "meta_bstar": 0.00032935872,
        "meta_mean_motion_dot": 6.869e-05,
        "meta_mean_motion_ddot": 0,
        "tle_line1": "1 42767U 17036C   25347.96691846  .00006869  00000+0  32936-3 0  9997",
        "tle_line2": "2 42767  97.4561  45.5373 0002032 233.7363 126.3684 15.19216829470028"
      },
      "geometry": {
        "type": "Point",
        "coordinates": [
          85.17074927479524,
          -78.24378157537451
        ]
      }
    },
    {
      "type": "Feature",
      "properties": {
        "norad_id": 42920,
        "name": "FORMOSAT-5",
        "group": "resource",
        "lat": -53.16238335584886,
        "lon": -128.26840750991857,
        "alt_km": 725.3649782138145,
        "timestamp": "2025-12-14T14:39:29.033919+00:00",
        "meta_object_name": "FORMOSAT-5",
        "meta_object_id": "2017-049A",
        "meta_epoch": "2025-12-13T22:41:14.905824",
        "meta_mean_motion": 14.51006362,
        "meta_eccentricity": 0.00098532,
        "meta_inclination": 98.2453,
        "meta_ra_of_asc_node": 62.2404,
        "meta_arg_of_pericenter": 291.3675,
        "meta_mean_anomaly": 68.6468,
        "meta_ephemeris_type": 0,
        "meta_classification_type": "U",
        "meta_norad_cat_id": 42920,
        "meta_element_set_no": 999,
        "meta_rev_at_epoch": 43981,
        "meta_bstar": 9.7827222e-05,
        "meta_mean_motion_dot": 3.43e-06,
        "meta_mean_motion_ddot": 0,
        "tle_line1": "1 42920U 17049A   25347.94531141  .00000343  00000+0  97827-4 0  9993",
        "tle_line2": "2 42920  98.2453  62.2404 0009853 291.3675  68.6468 14.51006362439817"
      },
      "geometry": {
        "type": "Point",
        "coordinates": [
          -128.26840750991857,
          -53.16238335584886
        ]
      }
    },
    {
      "type": "Feature",
      "properties": {
        "norad_id": 42969,
        "name": "SENTINEL-5P",
        "group": "resource",
        "lat": 56.659637175649095,
        "lon": -86.40609461370386,
        "alt_km": 820.9007095806583,
        "timestamp": "2025-12-14T14:39:29.033929+00:00",
        "meta_object_name": "SENTINEL-5P",
        "meta_object_id": "2017-064A",
        "meta_epoch": "2025-12-13T19:46:43.973184",
        "meta_mean_motion": 14.19517942,
        "meta_eccentricity": 9.707e-05,
        "meta_inclination": 98.7784,
        "meta_ra_of_asc_node": 286.3986,
        "meta_arg_of_pericenter": 88.5825,
        "meta_mean_anomaly": 271.5462,
        "meta_ephemeris_type": 0,
        "meta_classification_type": "U",
        "meta_norad_cat_id": 42969,
        "meta_element_set_no": 999,
        "meta_rev_at_epoch": 42326,
        "meta_bstar": 8.385383e-05,
        "meta_mean_motion_dot": 1.33e-06,
        "meta_mean_motion_ddot": 0,
        "tle_line1": "1 42969U 17064A   25347.82412006  .00000133  00000+0  83854-4 0  9990",
        "tle_line2": "2 42969  98.7784 286.3986 0000970  88.5825 271.5462 14.19517942423266"
      },
      "geometry": {
        "type": "Point",
        "coordinates": [
          -86.40609461370386,
          56.659637175649095
        ]
      }
    },
    {
      "type": "Feature",
      "properties": {
        "norad_id": 42987,
        "name": "SKYSAT-C11",
        "group": "resource",
        "lat": -47.59490784152152,
        "lon": 134.34517834905012,
        "alt_km": 431.423668728944,
        "timestamp": "2025-12-14T14:39:29.033939+00:00",
        "meta_object_name": "SKYSAT-C11",
        "meta_object_id": "2017-068A",
        "meta_epoch": "2025-12-13T21:47:42.260928",
        "meta_mean_motion": 15.47511727,
        "meta_eccentricity": 0.0001044,
        "meta_inclination": 97.4137,
        "meta_ra_of_asc_node": 125.4283,
        "meta_arg_of_pericenter": 104.7272,
        "meta_mean_anomaly": 255.4093,
        "meta_ephemeris_type": 0,
        "meta_classification_type": "U",
        "meta_norad_cat_id": 42987,
        "meta_element_set_no": 999,
        "meta_rev_at_epoch": 45449,
        "meta_bstar": 0.0004554518,
        "meta_mean_motion_dot": 0.00023347,
        "meta_mean_motion_ddot": 0,
        "tle_line1": "1 42987U 17068A   25347.90812802  .00023347  00000+0  45545-3 0  9997",
        "tle_line2": "2 42987  97.4137 125.4283 0001044 104.7272 255.4093 15.47511727454494"
      },
      "geometry": {
        "type": "Point",
        "coordinates": [
          134.34517834905012,
          -47.59490784152152
        ]
      }
    }
  ]
}